TEVEL2-2                
1 63219U 25052K   26068.64848259  .00020339  00000+0  69428-3 0  9991
2 63219  97.3987 324.7700 0004693 105.7930 254.3828 15.30343745 54855
STARLINK-33725          
1 63717U 25087W   26068.70699303  .00046247  00000+0  15649-2 0  9994
2 63717  53.1574 219.3748 0001106  58.2900 301.8208 15.30177870 49203
